TDRS 3                  
1 19548U 88091B   26159.02911321 -.00000291  00000+0  00000+0 0  9996
2 19548  12.6091 341.0598 0038450 356.4210 240.5148  1.00277238125292
FLTSATCOM 8 (USA 46)    
1 20253U 89077A   26158.94078251 -.00000359  00000+0  00000+0 0  9997
2 20253  12.4242 351.2227 0004672  48.9299 320.3023  1.00282277260472
SKYNET 4C               
1 20776U 90079A   26159.15947676  .00000134  00000+0  00000+0 0  9991
2 20776  13.3433 349.8728 0002634  93.6167 263.8338  1.00273137130796
TDRS 5                  
1 21639U 91054B   26158.74014609  .00000092  00000+0  00000+0 0  9992
2 21639  14.0724 353.8469 0006039 276.2168  84.8420  1.00271185127628
TDRS 6                  
1 22314U 93003B   26159.06087197 -.00000287  00000+0  00000+0 0  9994
2 22314  14.1828 357.1295 0007384 178.8335  56.5769  1.00274720122317
UFO 2 (USA 95)          
1 22787U 93056A   26158.66991050  .00000134  00000+0  00000+0 0  9993
2 22787  11.8919   3.6106 0006406   5.3090 156.9291  1.00272180118459
USA 99 (MILSTAR-1 1)    
1 22988U 94009A   26159.00402780  .00000030  00000+0  00000+0 0  9996
2 22988  17.6126  27.8004 0000840 204.4652  81.8500  0.98720470 32857
UFO 4 (USA 108)         
1 23467U 95003A   26158.80751294 -.00000012  00000+0  00000+0 0  9999
2 23467   9.7078  13.2659 0003040  55.2859 290.5360  1.00271115114854
TDRS 7                  
1 23613U 95035B   26159.00490964 -.00000230  00000+0  00000+0 0  9996
2 23613  13.3810 348.2562 0011085  75.6912 283.2782  1.00266875113156
USA 115 (MILSTAR-1 2)   
1 23712U 95060A   26159.03931601 -.00000166  00000+0  00000+0 0  9993
2 23712  14.0695   3.8148 0001677 130.7699  38.7292  1.00366165 32792
INMARSAT 3-F1           
1 23839U 96020A   26159.11292271 -.00000163  00000+0  00000+0 0  9999
2 23839  10.5833  46.7196 0003608  37.2720 127.5580  0.99980252110169
INMARSAT 3-F2           
1 24307U 96053A   26158.59264382 -.00000172  00000+0  00000+0 0  9999
2 24307   9.8366  54.0356 0006712  21.4069 192.5354  1.00004488108824
INMARSAT 3-F3           
1 24674U 96070A   26158.78376617  .00000128  00000+0  00000+0 0  9991
2 24674  10.2990  49.7447 0003539  16.3369 164.6406  0.99978330107811
AMC-3                   
1 24936U 97050A   26156.46923512 -.00000232  00000+0  00000+0 0  9993
2 24936   8.1165  64.2198 0010464 111.2215 173.9176  1.00107765 52317
USA 134                 
1 25019U 97065A   26158.46176441 -.00000054  00000+0  00000+0 0  9997
2 25019  12.7723  21.7936 0003577 341.2718 306.8474  1.00270883 32856
INMARSAT 3-F5           
1 25153U 98006B   26159.11907605 -.00000278  00000+0  00000+0 0  9997
2 25153   9.6723  53.3482 0004714  20.4432 171.6339  1.00271759103805
ABS-6                   
1 25924U 99053A   26159.19365394 -.00000103  00000+0  00000+0 0  9994
2 25924   0.0226 295.7993 0003475 147.1759  42.3207  1.00276968 97756
UFO 10 (USA 146)        
1 25967U 99063A   26153.99200895 -.00000181  00000+0  00000+0 0  9994
2 25967   9.8534  27.2872 0001940  17.6670 180.6760  1.00273735 97203
ASIASTAR                
1 26107U 00016A   26158.64794377 -.00000321  00000+0  00000+0 0  9997
2 26107   9.1019  58.2562 0004712  17.4232 158.6382  1.00273400 95823
USA 149 (DSP 20)        
1 26356U 00024A   26158.74066609  .00000103  00000+0  00000+0 0  9990
2 26356  13.1632  11.9177 0001557 314.3109  31.1452  1.00271523 32816
TDRS 8                  
1 26388U 00034A   26159.14663272 -.00000183  00000+0  00000+0 0  9999
2 26388  12.6700  31.4009 0004935  11.4503 351.2137  1.00268882 95097
NSS-11                  
1 26554U 00059A   26158.87948725  .00000040  00000+0  00000+0 0  9990
2 26554   2.1016  81.5002 0003095 358.2985 309.0900  1.00272423 41194
USA 153                 
1 26575U 00065A   26158.62087419 -.00000313  00000+0  00000+0 0  9991
2 26575  11.6083  35.5007 0003158  45.1621 173.3880  1.00272043 32837
AMC-6                   
1 26580U 00067A   26159.10306743  .00000104  00000+0  00000+0 0  9994
2 26580   0.1280  82.9783 0003667   3.0009  72.5836  1.00271242 93805
USA 157 (MILSTAR-2 2)   
1 26715U 01009A   26158.74369942  .00000120  00000+0  00000+0 0  9998
2 26715  11.5318  19.8206 0039094 177.0318 176.9464  1.00271226 32845
USA 159 (DSP 21)        
1 26880U 01033A   26158.97626226 -.00000215  00000+0  00000+0 0  9990
2 26880  12.7730  16.5036 0001496 124.2640  51.6281  0.99200038 32869
INTELSAT 902 (IS-902)   
1 26900U 01039A   26159.11994273 -.00000269  00000+0  00000+0 0  9995
2 26900   6.0956  71.8927 0004302   2.8502 174.8304  1.00270299 90607
USA 164 (MILSTAR-2 3)   
1 27168U 02001A   26158.84831397  .00000108  00000+0  00000+0 0  9999
2 27168  11.1680  21.9616 0099261   8.2683 190.3458  1.00274464 32869
INTELSAT 904 (IS-904)   
1 27380U 02007A   26159.14141970 -.00000211  00000+0  00000+0 0  9992
2 27380   6.8967  69.2917 0006741   2.4117 204.2384  1.00271575 51675
DIRECTV 5 (TEMPO 1)     
1 27426U 02023A   26158.89413235 -.00000042  00000+0  00000+0 0  9990
2 27426   4.8532  75.4254 0003395  10.8627  21.7893  1.00271650 88037
INTELSAT 905 (IS-905)   
1 27438U 02027A   26158.54554470  .00000107  00000+0  00000+0 0  9997
2 27438   6.7285  69.9157 0004099  15.2283 229.9944  1.00273058 51263
