OBJECT_NAME,OBJECT_ID,EPOCH,MEAN_MOTION,ECCENTRICITY,INCLINATION,RA_OF_ASC_NODE,ARG_OF_PERICENTER,MEAN_ANOMALY,EPHEMERIS_TYPE,CLASSIFICATION_TYPE,NORAD_CAT_ID,ELEMENT_SET_NO,REV_AT_EPOCH,BSTAR,MEAN_MOTION_DOT,MEAN_MOTION_DDOT
TDRS 3,1988-091B,2026-06-08T00:41:55.381344,1.00277238,.003845,12.6091,341.0598,356.4210,240.5148,0,U,19548,999,12529,0,-.291E-5,0
FLTSATCOM 8 (USA 46),1989-077A,2026-06-07T22:34:43.608864,1.00282277,.0004672,12.4242,351.2227,48.9299,320.3023,0,U,20253,999,26047,0,-.359E-5,0
SKYNET 4C,1990-079A,2026-06-08T03:49:38.792064,1.00273137,.0002634,13.3433,349.8728,93.6167,263.8338,0,U,20776,999,13079,0,.134E-5,0
TDRS 5,1991-054B,2026-06-07T17:45:48.622176,1.00271185,.0006039,14.0724,353.8469,276.2168,84.8420,0,U,21639,999,12762,0,.92E-6,0
TDRS 6,1993-003B,2026-06-08T01:27:39.338208,1.00274720,.0007384,14.1828,357.1295,178.8335,56.5769,0,U,22314,999,12231,0,-.287E-5,0
UFO 2 (USA 95),1993-056A,2026-06-07T16:04:40.267200,1.00272180,.0006406,11.8919,3.6106,5.3090,156.9291,0,U,22787,999,11845,0,.134E-5,0
USA 99 (MILSTAR-1 1),1994-009A,2026-06-08T00:05:48.001920,0.98720470,.000084,17.6126,27.8004,204.4652,81.8500,0,U,22988,999,3285,0,.3E-6,0
UFO 4 (USA 108),1995-003A,2026-06-07T19:22:49.118016,1.00271115,.000304,9.7078,13.2659,55.2859,290.5360,0,U,23467,999,11485,0,-.12E-6,0
TDRS 7,1995-035B,2026-06-08T00:07:04.192896,1.00266875,.0011085,13.3810,348.2562,75.6912,283.2782,0,U,23613,999,11315,0,-.23E-5,0
USA 115 (MILSTAR-1 2),1995-060A,2026-06-08T00:56:36.903264,1.00366165,.0001677,14.0695,3.8148,130.7699,38.7292,0,U,23712,999,3279,0,-.166E-5,0
INMARSAT 3-F1,1996-020A,2026-06-08T02:42:36.522144,0.99980252,.0003608,10.5833,46.7196,37.2720,127.5580,0,U,23839,999,11016,0,-.163E-5,0
INMARSAT 3-F2,1996-053A,2026-06-07T14:13:24.426048,1.00004488,.0006712,9.8366,54.0356,21.4069,192.5354,0,U,24307,999,10882,0,-.172E-5,0
INMARSAT 3-F3,1996-070A,2026-06-07T18:48:37.397088,0.99978330,.0003539,10.2990,49.7447,16.3369,164.6406,0,U,24674,999,10781,0,.128E-5,0
AMC-3,1997-050A,2026-06-05T11:15:41.914368,1.00107765,.00104649,8.1165,64.2198,111.2215,173.9176,0,U,24936,999,5231,0,-.232E-5,0
USA 134,1997-065A,2026-06-07T11:04:56.445024,1.00270883,.0003577,12.7723,21.7936,341.2718,306.8474,0,U,25019,999,3285,0,-.54E-6,0
INMARSAT 3-F5,1998-006B,2026-06-08T02:51:28.170720,1.00271759,.0004714,9.6723,53.3482,20.4432,171.6339,0,U,25153,999,10380,0,-.278E-5,0
ABS-6,1999-053A,2026-06-08T04:38:51.700416,1.00276968,.0003475,0.0226,295.7993,147.1759,42.3207,0,U,25924,999,9775,0,-.103E-5,0
UFO 10 (USA 146),1999-063A,2026-06-02T23:48:29.573280,1.00273735,.00019407,9.8534,27.2872,17.6670,180.6760,0,U,25967,999,9720,0,-.181E-5,0
ASIASTAR,2000-016A,2026-06-07T15:33:02.341728,1.00273400,.0004712,9.1019,58.2562,17.4232,158.6382,0,U,26107,999,9582,0,-.321E-5,0
USA 149 (DSP 20),2000-024A,2026-06-07T17:46:33.550176,1.00271523,.0001557,13.1632,11.9177,314.3109,31.1452,0,U,26356,999,3281,0,.103E-5,0
TDRS 8,2000-034A,2026-06-08T03:31:09.067008,1.00268882,.0004935,12.6700,31.4009,11.4503,351.2137,0,U,26388,999,9509,0,-.183E-5,0
NSS-11,2000-059A,2026-06-07T21:06:27.698400,1.00272423,.0003095,2.1016,81.5002,358.2985,309.0900,0,U,26554,999,4119,0,.4E-6,0
USA 153,2000-065A,2026-06-07T14:54:03.530016,1.00272043,.0003158,11.6083,35.5007,45.1621,173.3880,0,U,26575,999,3283,0,-.313E-5,0
AMC-6,2000-067A,2026-06-08T02:28:25.025952,1.00271242,.0003667,0.1280,82.9783,3.0009,72.5836,0,U,26580,999,9380,0,.104E-5,0
USA 157 (MILSTAR-2 2),2001-009A,2026-06-07T17:50:55.629888,1.00271226,.0039094,11.5318,19.8206,177.0318,176.9464,0,U,26715,999,3284,0,.12E-5,0
USA 159 (DSP 21),2001-033A,2026-06-07T23:25:49.059264,0.99200038,.0001496,12.7730,16.5036,124.2640,51.6281,0,U,26880,999,3286,0,-.215E-5,0
INTELSAT 902 (IS-902),2001-039A,2026-06-08T02:52:43.051872,1.00270299,.0004302,6.0956,71.8927,2.8502,174.8304,0,U,26900,999,9060,0,-.269E-5,0
USA 164 (MILSTAR-2 3),2002-001A,2026-06-07T20:21:34.327008,1.00274464,.0099261,11.1680,21.9616,8.2683,190.3458,0,U,27168,999,3286,0,.108E-5,0
INTELSAT 904 (IS-904),2002-007A,2026-06-08T03:23:38.662080,1.00271575,.0006741,6.8967,69.2917,2.4117,204.2384,0,U,27380,999,5167,0,-.211E-5,0
DIRECTV 5 (TEMPO 1),2002-023A,2026-06-07T21:27:33.035040,1.00271650,.0003395,4.8532,75.4254,10.8627,21.7893,0,U,27426,999,8803,0,-.42E-6,0
INTELSAT 905 (IS-905),2002-027A,2026-06-07T13:05:35.062080,1.00273058,.0004099,6.7285,69.9157,15.2283,229.9944,0,U,27438,999,5126,0,.107E-5,0
